CUTE-1 (CO-55)          
1 27844U 03031E   22256.56232833  .00000233  00000+0  12381-3 0  9996
2 27844  98.6810 262.9260 0009335 200.6893 159.3908 14.22491851996437
CUBESAT XI-IV (CO-57)   
1 27848U 03031J   22256.83433829  .00000199  00000+0  10958-3 0  9997
2 27848  98.6854 263.6946 0008999 215.1177 144.9408 14.22043810996241
CUBESAT XI-V            
1 28895U 05043F   22256.79833451  .00001160  00000+0  22779-3 0  9998
2 28895  98.1184  26.8771 0015818 219.8603 140.1439 14.64468322900346
CUTE-1.7+APD II (CO-65) 
1 32785U 08021C   22256.75678152  .00002291  00000+0  24388-3 0  9995
2 32785  97.6667 224.8614 0011224 306.2720  53.7460 14.89850669779706
AAUSAT-II               
1 32788U 08021F   22256.89040281  .00005891  00000+0  50198-3 0  9996
2 32788  97.5404 239.1403 0011335 175.7423 184.3898 14.98073387781673
DELFI-C3 (DO-64)        
1 32789U 08021G   22256.87637872  .00016270  00000+0  85938-3 0  9996
2 32789  97.3353 280.0641 0010356  28.7427 331.4374 15.15535313785318
SEEDS II (CO-66)        
1 32791U 08021J   22256.65090368  .00003356  00000+0  32742-3 0  9994
2 32791  97.6202 230.1611 0011025 254.4244 105.5759 14.93050493780351
SWISSCUBE               
1 35932U 09051B   22256.55953372  .00000675  00000+0  16115-3 0  9997
2 35932  98.5578 114.9187 0008259 130.3944 229.7976 14.56954671688962
BEESAT-1                
1 35933U 09051C   22256.85735000  .00000596  00000+0  14351-3 0  9999
2 35933  98.5514 116.7916 0006311 138.8672 221.3001 14.56960040689045
ITUPSAT1                
1 35935U 09051E   22256.86032225  .00000545  00000+0  13478-3 0  9994
2 35935  98.5615 116.8270 0008538 144.8627 215.3134 14.56062032688743
TISAT 1                 
1 36799U 10035E   22256.84857583  .00002612  00000+0  25544-3 0  9991
2 36799  98.1724 110.7576 0011990 159.5012 200.6689 14.93227432660951
M-CUBED & EXP-1 PRIME   
1 37855U 11061F   22256.85463173  .00018474  00000+0  77855-3 0  9999
2 37855 101.7210  62.8755 0149346 157.3427 203.4474 15.13824218594604
AEROCUBE 4.5A           
1 38767U 12048K   22256.81161459  .00004488  00000+0  31511-3 0  9995
2 38767  64.6656 193.2560 0170986 238.4480 119.9841 14.95386198163997
AEROCUBE 4.5B           
1 38768U 12048L   22256.80801350  .00005418  00000+0  34354-3 0  9998
2 38768  64.6657 145.7573 0156826 233.8424 124.8099 15.00345389164400
STRAND-1                
1 39090U 13009E   22256.48433496  .00000221  00000+0  92093-4 0  9993
2 39090  98.4011  92.3117 0009404  16.6628 343.4865 14.35324595500026
BRITE-AUSTRIA           
1 39091U 13009F   22256.81896084  .00000139  00000+0  63326-4 0  9992
2 39091  98.4029  91.8192 0010900  21.2435 338.9202 14.35298723500100
SOMP                    
1 39134U 13015E   22256.63664594  .00017360  00000+0  57910-3 0  9991
2 39134  64.8600 132.0325 0035285 265.5278  94.1823 15.30593845520344
BEESAT-3                
1 39135U 13015F   22256.15952552  .00014180  00000+0  55454-3 0  9991
2 39135  64.8659 171.8579 0039148 270.5467  89.1178 15.25365099519481
BEESAT-2                
1 39136U 13015G   22256.52884720  .00014246  00000+0  58370-3 0  9997
2 39136  64.8746 179.3518 0021792 294.8293  65.0570 15.24294379519331
NEE-01 PEGASO           
1 39151U 13018B   22256.74730073  .00001503  00000+0  20006-3 0  9999
2 39151  97.9959   2.1378 0016057 333.1529  26.8851 14.81114266506741
ESTCUBE 1               
1 39161U 13021C   22256.86609529  .00001009  00000+0  16422-3 0  9996
2 39161  97.9042 331.7911 0010298 132.8054 227.4022 14.73088057502482
POPACS 1                
1 39268U 13055D   22256.41173800  .00013408  00000+0  33805-3 0  9990
2 39268  80.9968 144.7312 0559824 294.4853  59.8943 14.53097082466069
POPACS 2                
1 39269U 13055E   22255.27347765  .00010663  00000+0  28761-3 0  9992
2 39269  81.0129 205.4111 0643648  92.0510 275.4465 14.33994969462624
POPACS 3                
1 39270U 13055F   22256.38043171  .00006071  00000+0  18329-3 0  9998
2 39270  81.0121 238.6854 0686008 186.1558 173.0872 14.22630274441136
ZACUBE-1 (TSHEPISOSAT)  
1 39417U 13066B   22256.45039563  .00001970  00000+0  24388-3 0  9996
2 39417  97.6455 224.0271 0058962 115.3134 245.4204 14.82581206476160
WNISAT-1                
1 39423U 13066H   22256.89023543  .00000371  00000+0  82741-4 0  9994
2 39423  97.7386 131.8023 0173290 221.2505 137.5489 14.53562977467306
TRITON-1                
1 39427U 13066M   22256.81247668  .00002758  00000+0  43449-3 0  9998
2 39427  97.8144 188.7794 0111161 343.0847  16.6664 14.69173849471759
DELFI-N3XT              
1 39428U 13066N   22256.78397706  .00004651  00000+0  71400-3 0  9996
2 39428  97.8148 187.3626 0116877 356.2471   3.7846 14.69509722471506
GOMX-1                  
1 39430U 13066Q   22256.91584917  .00001027  00000+0  19003-3 0  9991
2 39430  97.8012 159.0402 0149939 125.5788 235.9499 14.60345387469203
CUBEBUG-2 (LO-74)       
1 39440U 13066AA  22256.58557480  .00001502  00000+0  20877-3 0  9999
2 39440  97.7338 210.4834 0077592 204.5773 155.1733 14.77241380473296
NEE-02 KRYSAOR          
1 39441U 13066AB  22256.80085490  .00001140  00000+0  16498-3 0  9994
2 39441  97.7447 207.8225 0079272 218.2488 141.3083 14.75913368473064
FUNCUBE-1 (AO-73)       
1 39444U 13066AE  22256.87367233  .00003109  00000+0  37127-3 0  9991
2 39444  97.6336 226.8508 0057937 101.9268 258.8450 14.83714786474634
UWE-3                   
1 39446U 13066AG  22256.38755139  .00001558  00000+0  20559-3 0  9992
2 39446  97.6942 216.7016 0068763 161.2908 199.0856 14.79796770474050
AEROCUBE 5A             
1 39465U 13072D   22256.82443119  .00066687  00000+0  33435-2 0  9991
2 39465 120.4837 283.7549 0184352  14.4701 346.1555 15.03206298162871
AEROCUBE 5B             
1 39466U 13072E   22256.43333901  .00114498  00000+0  28066-2 0  9994
2 39466 120.4553  21.2210 0113838  32.3794 328.4211 15.33485973164145
BRITE-CA1 (TORONTO)     
1 40020U 14033L   22256.39992440  .00000505  00000+0  93558-4 0  9997
2 40020  97.7899  50.9390 0086290 343.9166  15.9303 14.67127531440556
DUCHIFAT-1              
1 40021U 14033M   22256.80137804  .00004842  00000+0  46677-3 0  9996
2 40021  98.0190 208.6629 0013875 106.7928 253.4814 14.93329405447884
NANOSATC-BR1            
1 40024U 14033Q   22256.54144735  .00004170  00000+0  41540-3 0  9999
2 40024  97.9909 201.2934 0013391 113.0983 247.1648 14.92103765447115
QB50P1                  
1 40025U 14033R   22256.79610336  .00003129  00000+0  32331-3 0  9993
2 40025  97.9634 194.9149 0013429 121.7727 238.4801 14.90816025446921
QB50P2                  
1 40032U 14033Y   22256.78911097  .00002647  00000+0  27851-3 0  9993
2 40032  97.9390 189.9485 0012870 119.7280 240.5219 14.90219071446773
PERSEUS-M2              
1 40037U 14033AD  22256.78409115  .00001105  00000+0  12868-3 0  9991
2 40037  97.8935 178.5045 0015022 143.1568 217.0683 14.87227769446256
PERSEUS-M1              
1 40039U 14033AF  22256.53297052  .00001030  00000+0  12151-3 0  9993
2 40039  97.8828 175.8526 0014884 143.1541 217.0700 14.86832485446097
POLYITAN-1              
1 40042U 14033AJ  22256.80730951  .00003429  00000+0  35282-3 0  9991
2 40042  97.9742 196.2410 0015665 114.8697 245.4151 14.90901920446812
TIGRISAT                
1 40043U 14033AK  22256.48019681  .00001314  00000+0  19676-3 0  9996
2 40043  97.6576  81.0053 0057934 230.4761 129.1320 14.75149407442607
AEROCUBE 6A             
1 40045U 14033AM  22256.77350863  .00001323  00000+0  19206-3 0  9999
2 40045  97.6639  90.3251 0055656 216.6679 143.0718 14.76543088442818
AEROCUBE 6B             
1 40046U 14033AN  22256.52454927  .00002594  00000+0  36627-3 0  9996
2 40046  97.6555  88.5110 0054650 215.3666 144.3916 14.76985180442787
UKUBE-1                 
1 40074U 14037F   22256.92575496  .00002010  00000+0  23882-3 0  9992
2 40074  98.3691 142.1810 0005078  15.5024 344.6356 14.85658255443200
BRITE-PL2 (HEWELIUSZ)   
1 40119U 14049B   22256.53388014  .00001126  00000+0  13722-3 0  9999
2 40119  97.8844 351.2657 0016178 317.5088  42.4874 14.85273698437085
FIREBIRD 4              
1 40378U 15003C   22256.49494744  .00022661  00000+0  63092-3 0  9992
2 40378  99.0857 141.3844 0096733  86.0550 275.1738 15.32178363421895
GRIFEX                  
1 40379U 15003D   22256.89821006  .00012848  00000+0  43676-3 0  9994
2 40379  99.0984 126.7849 0113137 129.8523 231.2729 15.24635107421093
CP10 (EXOCUBE)          
1 40380U 15003E   22256.87741229  .00009137  00000+0  34231-3 0  9996
2 40380  99.1095 119.1319 0121446 155.4601 205.2477 15.20865458420596
TIANWANG 1A (TW-1A)     
1 40928U 15051D   22256.84298078  .00069528  00000+0  64774-3 0  9998
2 40928  97.0325 279.1218 0008148  70.8004 103.7775 15.67106993392046
EXACTVIEW 9             
1 40936U 15052G   22255.20247760  .00001810  00000+0  16060-3 0  9994
2 40936   6.0031 274.3627 0010796 303.8336  56.0764 14.77284142376110
AEROCUBE 5C             
1 40965U 15058B   22256.41256837  .00001081  00000+0  13891-3 0  9990
2 40965  64.7774 184.4033 0181582 171.5279 188.8966 14.75838176161948
AEROCUBE 7              
1 40966U 15058C   22256.51206753  .00001504  00000+0  18395-3 0  9998
2 40966  64.7773 181.0572 0179467 171.1299 189.3053 14.76443796161962
ATHENOXAT 1             
1 41168U 15077C   22256.89695823  .00018467  00000+0  72963-3 0  9992
2 41168  14.9850 153.9244 0009491  41.5111  36.1621 15.22868392373809
GALASSIA                
1 41170U 15077E   22256.00299650  .00015021  00000+0  60747-3 0  9996
2 41170  14.9875 152.2359 0010103  58.7594 301.3718 15.21780775373570
VELOX-II                
1 41171U 15077F   22256.27090323  .00010811  00000+0  49754-3 0  9999
2 41171  14.9905 228.2558 0007755 253.2446 106.7024 15.16813664372964
HORYU-4                 
1 41340U 16012D   22256.86727215  .00004714  00000+0  32859-3 0  9992
2 41340  31.0040 154.2945 0013131 359.2202   0.8413 15.03755073361040
